[{"OBJECT_NAME":"STARLINK-5023","OBJECT_ID":"2022-119AK","EPOCH":"2026-03-09T22:25:05.467584","MEAN_MOTION":15.08843792,"ECCENTRICITY":0.00014207,"INCLINATION":53.2185,"RA_OF_ASC_NODE":312.8925,"ARG_OF_PERICENTER":88.2756,"MEAN_ANOMALY":271.8398,"EPHEMERIS_TYPE":0,"CLASSIFICATION_TYPE":"U","NORAD_CAT_ID":53919,"ELEMENT_SET_NO":999,"REV_AT_EPOCH":19186,"BSTAR":1.135116e-5,"MEAN_MOTION_DOT":-1.07e-6,"MEAN_MOTION_DDOT":0},{"OBJECT_NAME":"CZ-6A DEB","OBJECT_ID":"2024-126C","EPOCH":"2026-03-09T22:45:09.534528","MEAN_MOTION":15.08339588,"ECCENTRICITY":0.00034995,"INCLINATION":97.8272,"RA_OF_ASC_NODE":88.0703,"ARG_OF_PERICENTER":249.9832,"MEAN_ANOMALY":110.1019,"EPHEMERIS_TYPE":0,"CLASSIFICATION_TYPE":"U","NORAD_CAT_ID":60213,"ELEMENT_SET_NO":999,"REV_AT_EPOCH":9177,"BSTAR":0.0010886629,"MEAN_MOTION_DOT":0.00016868,"MEAN_MOTION_DDOT":0}]
